[{"OBJECT_NAME":"STARLINK-3184","OBJECT_ID":"2022-005AR","EPOCH":"2025-12-14T05:40:32.182176","MEAN_MOTION":15.08818466,"ECCENTRICITY":0.00017083,"INCLINATION":53.2186,"RA_OF_ASC_NODE":332.7352,"ARG_OF_PERICENTER":92.1396,"MEAN_ANOMALY":267.9792,"EPHEMERIS_TYPE":0,"CLASSIFICATION_TYPE":"U","NORAD_CAT_ID":51143,"ELEMENT_SET_NO":999,"REV_AT_EPOCH":21569,"BSTAR":1.1559539e-5,"MEAN_MOTION_DOT":-1.04e-6,"MEAN_MOTION_DDOT":0},{"OBJECT_NAME":"STARLINK-3185","OBJECT_ID":"2022-005AS","EPOCH":"2025-12-14T07:45:06.688512","MEAN_MOTION":15.08844835,"ECCENTRICITY":0.00014123,"INCLINATION":53.218,"RA_OF_ASC_NODE":322.3578,"ARG_OF_PERICENTER":95.9304,"MEAN_ANOMALY":264.1849,"EPHEMERIS_TYPE":0,"CLASSIFICATION_TYPE":"U","NORAD_CAT_ID":51144,"ELEMENT_SET_NO":999,"REV_AT_EPOCH":21585,"BSTAR":0.00011615683,"MEAN_MOTION_DOT":1.561e-5,"MEAN_MOTION_DDOT":0},{"OBJECT_NAME":"STARLINK-3354","OBJECT_ID":"2022-005AU","EPOCH":"2025-12-14T07:55:42.392928","MEAN_MOTION":15.08843976,"ECCENTRICITY":0.00011438,"INCLINATION":53.2188,"RA_OF_ASC_NODE":322.3244,"ARG_OF_PERICENTER":96.1469,"MEAN_ANOMALY":263.9653,"EPHEMERIS_TYPE":0,"CLASSIFICATION_TYPE":"U","NORAD_CAT_ID":51146,"ELEMENT_SET_NO":999,"REV_AT_EPOCH":21584,"BSTAR":4.8291648e-5,"MEAN_MOTION_DOT":4.81e-6,"MEAN_MOTION_DDOT":0},{"OBJECT_NAME":"STARLINK-3352","OBJECT_ID":"2022-005AV","EPOCH":"2025-12-14T05:10:10.498656","MEAN_MOTION":15.19679895,"ECCENTRICITY":0.00011546,"INCLINATION":53.2114,"RA_OF_ASC_NODE":328.3786,"ARG_OF_PERICENTER":35.2919,"MEAN_ANOMALY":324.8154,"EPHEMERIS_TYPE":0,"CLASSIFICATION_TYPE":"U","NORAD_CAT_ID":51147,"ELEMENT_SET_NO":999,"REV_AT_EPOCH":21575,"BSTAR":0.000427026,"MEAN_MOTION_DOT":8.916e-5,"MEAN_MOTION_DDOT":0},{"OBJECT_NAME":"STARLINK-3359","OBJECT_ID":"2022-005AW","EPOCH":"2025-12-14T05:57:50.381856","MEAN_MOTION":15.0884115,"ECCENTRICITY":0.00014903,"INCLINATION":53.2183,"RA_OF_ASC_NODE":332.8829,"ARG_OF_PERICENTER":95.1813,"MEAN_ANOMALY":264.9349,"EPHEMERIS_TYPE":0,"CLASSIFICATION_TYPE":"U","NORAD_CAT_ID":51148,"ELEMENT_SET_NO":999,"REV_AT_EPOCH":21569,"BSTAR":-6.8637461e-5,"MEAN_MOTION_DOT":-1.38e-5,"MEAN_MOTION_DDOT":0},{"OBJECT_NAME":"STARLINK-3360","OBJECT_ID":"2022-005AX","EPOCH":"2025-12-14T08:10:15.377664","MEAN_MOTION":15.08831604,"ECCENTRICITY":0.00013115,"INCLINATION":53.2184,"RA_OF_ASC_NODE":332.0883,"ARG_OF_PERICENTER":100.6398,"MEAN_ANOMALY":259.4742,"EPHEMERIS_TYPE":0,"CLASSIFICATION_TYPE":"U","NORAD_CAT_ID":51149,"ELEMENT_SET_NO":999,"REV_AT_EPOCH":21571,"BSTAR":1.9268067e-5,"MEAN_MOTION_DOT":1.9e-7,"MEAN_MOTION_DDOT":0},{"OBJECT_NAME":"STARLINK-3357","OBJECT_ID":"2022-005AY","EPOCH":"2025-12-14T05:04:41.774304","MEAN_MOTION":15.08831549,"ECCENTRICITY":0.00016172,"INCLINATION":53.2201,"RA_OF_ASC_NODE":322.46,"ARG_OF_PERICENTER":98.3554,"MEAN_ANOMALY":261.7621,"EPHEMERIS_TYPE":0,"CLASSIFICATION_TYPE":"U","NORAD_CAT_ID":51150,"ELEMENT_SET_NO":999,"REV_AT_EPOCH":21584,"BSTAR":8.237361e-6,"MEAN_MOTION_DOT":-1.57e-6,"MEAN_MOTION_DDOT":0},{"OBJECT_NAME":"STARLINK-3364","OBJECT_ID":"2022-005BA","EPOCH":"2025-12-14T06:01:39.595008","MEAN_MOTION":15.08832736,"ECCENTRICITY":0.0001245,"INCLINATION":53.2178,"RA_OF_ASC_NODE":332.2821,"ARG_OF_PERICENTER":93.1829,"MEAN_ANOMALY":266.9305,"EPHEMERIS_TYPE":0,"CLASSIFICATION_TYPE":"U","NORAD_CAT_ID":51152,"ELEMENT_SET_NO":999,"REV_AT_EPOCH":21570,"BSTAR":-3.8590017e-5,"MEAN_MOTION_DOT":-9.02e-6,"MEAN_MOTION_DDOT":0},{"OBJECT_NAME":"STARLINK-3181","OBJECT_ID":"2022-010F","EPOCH":"2025-12-14T06:05:43.057248","MEAN_MOTION":15.08827373,"ECCENTRICITY":0.00015434,"INCLINATION":53.2212,"RA_OF_ASC_NODE":302.6598,"ARG_OF_PERICENTER":95.7673,"MEAN_ANOMALY":264.3495,"EPHEMERIS_TYPE":0,"CLASSIFICATION_TYPE":"U","NORAD_CAT_ID":51461,"ELEMENT_SET_NO":999,"REV_AT_EPOCH":21392,"BSTAR":-7.5256964e-5,"MEAN_MOTION_DOT":-1.485e-5,"MEAN_MOTION_DDOT":0},{"OBJECT_NAME":"STARLINK-3166","OBJECT_ID":"2022-010G","EPOCH":"2025-12-14T04:26:24.307584","MEAN_MOTION":15.08828514,"ECCENTRICITY":0.00014394,"INCLINATION":53.2191,"RA_OF_ASC_NODE":302.978,"ARG_OF_PERICENTER":96.4974,"MEAN_ANOMALY":263.6183,"EPHEMERIS_TYPE":0,"CLASSIFICATION_TYPE":"U","NORAD_CAT_ID":51462,"ELEMENT_SET_NO":999,"REV_AT_EPOCH":21391,"BSTAR":-8.0909932e-5,"MEAN_MOTION_DOT":-1.575e-5,"MEAN_MOTION_DDOT":0},{"OBJECT_NAME":"STARLINK-3419","OBJECT_ID":"2022-010H","EPOCH":"2025-12-14T03:47:55.468896","MEAN_MOTION":15.08832185,"ECCENTRICITY":0.00017787,"INCLINATION":53.2203,"RA_OF_ASC_NODE":303.0878,"ARG_OF_PERICENTER":89.6933,"MEAN_ANOMALY":270.4263,"EPHEMERIS_TYPE":0,"CLASSIFICATION_TYPE":"U","NORAD_CAT_ID":51463,"ELEMENT_SET_NO":999,"REV_AT_EPOCH":21360,"BSTAR":-3.3334048e-5,"MEAN_MOTION_DOT":-8.18e-6,"MEAN_MOTION_DDOT":0},{"OBJECT_NAME":"STARLINK-3189","OBJECT_ID":"2022-010J","EPOCH":"2025-12-14T07:25:12.102240","MEAN_MOTION":15.08824299,"ECCENTRICITY":0.00012975,"INCLINATION":53.2172,"RA_OF_ASC_NODE":302.4067,"ARG_OF_PERICENTER":91.6821,"MEAN_ANOMALY":268.432,"EPHEMERIS_TYPE":0,"CLASSIFICATION_TYPE":"U","NORAD_CAT_ID":51464,"ELEMENT_SET_NO":999,"REV_AT_EPOCH":21443,"BSTAR":6.01072e-7,"MEAN_MOTION_DOT":-2.78e-6,"MEAN_MOTION_DDOT":0},{"OBJECT_NAME":"STARLINK-3401","OBJECT_ID":"2022-010K","EPOCH":"2025-12-14T04:09:07.814304","MEAN_MOTION":15.08821277,"ECCENTRICITY":0.00013812,"INCLINATION":53.2188,"RA_OF_ASC_NODE":303.0198,"ARG_OF_PERICENTER":84.2329,"MEAN_ANOMALY":275.8821,"EPHEMERIS_TYPE":0,"CLASSIFICATION_TYPE":"U","NORAD_CAT_ID":51465,"ELEMENT_SET_NO":999,"REV_AT_EPOCH":21441,"BSTAR":9.827197e-6,"MEAN_MOTION_DOT":-1.32e-6,"MEAN_MOTION_DDOT":0},{"OBJECT_NAME":"STARLINK-3178","OBJECT_ID":"2022-010M","EPOCH":"2025-12-14T06:53:23.493408","MEAN_MOTION":15.0883395,"ECCENTRICITY":0.00013305,"INCLINATION":53.219,"RA_OF_ASC_NODE":302.5088,"ARG_OF_PERICENTER":91.6823,"MEAN_ANOMALY":268.4321,"EPHEMERIS_TYPE":0,"CLASSIFICATION_TYPE":"U","NORAD_CAT_ID":51467,"ELEMENT_SET_NO":999,"REV_AT_EPOCH":21362,"BSTAR":6.7985871e-5,"MEAN_MOTION_DOT":7.94e-6,"MEAN_MOTION_DDOT":0},{"OBJECT_NAME":"STARLINK-3174","OBJECT_ID":"2022-010N","EPOCH":"2025-12-14T07:03:58.755456","MEAN_MOTION":15.08837127,"ECCENTRICITY":0.00014831,"INCLINATION":53.2191,"RA_OF_ASC_NODE":302.4362,"ARG_OF_PERICENTER":93.2898,"MEAN_ANOMALY":266.8264,"EPHEMERIS_TYPE":0,"CLASSIFICATION_TYPE":"U","NORAD_CAT_ID":51468,"ELEMENT_SET_NO":999,"REV_AT_EPOCH":21362,"BSTAR":2.9924453e-5,"MEAN_MOTION_DOT":1.88e-6,"MEAN_MOTION_DDOT":0},{"OBJECT_NAME":"STARLINK-3182","OBJECT_ID":"2022-010P","EPOCH":"2025-12-14T04:19:43.553280","MEAN_MOTION":15.08827189,"ECCENTRICITY":0.00014925,"INCLINATION":53.2193,"RA_OF_ASC_NODE":302.9878,"ARG_OF_PERICENTER":103.1263,"MEAN_ANOMALY":256.9896,"EPHEMERIS_TYPE":0,"CLASSIFICATION_TYPE":"U","NORAD_CAT_ID":51469,"ELEMENT_SET_NO":999,"REV_AT_EPOCH":21391,"BSTAR":6.9126576e-5,"MEAN_MOTION_DOT":8.12e-6,"MEAN_MOTION_DDOT":0},{"OBJECT_NAME":"STARLINK-3415","OBJECT_ID":"2022-010S","EPOCH":"2025-12-14T06:54:45.018720","MEAN_MOTION":15.08843002,"ECCENTRICITY":0.00014823,"INCLINATION":53.2183,"RA_OF_ASC_NODE":302.4381,"ARG_OF_PERICENTER":92.6286,"MEAN_ANOMALY":267.4876,"EPHEMERIS_TYPE":0,"CLASSIFICATION_TYPE":"U","NORAD_CAT_ID":51472,"ELEMENT_SET_NO":999,"REV_AT_EPOCH":21393,"BSTAR":3.2704561e-5,"MEAN_MOTION_DOT":2.33e-6,"MEAN_MOTION_DDOT":0},{"OBJECT_NAME":"STARLINK-3528","OBJECT_ID":"2022-016A","EPOCH":"2025-12-14T07:04:01.945344","MEAN_MOTION":15.08838484,"ECCENTRICITY":0.00014397,"INCLINATION":53.2187,"RA_OF_ASC_NODE":352.452,"ARG_OF_PERICENTER":80.8436,"MEAN_ANOMALY":279.2719,"EPHEMERIS_TYPE":0,"CLASSIFICATION_TYPE":"U","NORAD_CAT_ID":51714,"ELEMENT_SET_NO":999,"REV_AT_EPOCH":21053,"BSTAR":-1.1708492e-5,"MEAN_MOTION_DOT":-4.74e-6,"MEAN_MOTION_DDOT":0},{"OBJECT_NAME":"STARLINK-3533","OBJECT_ID":"2022-016B","EPOCH":"2025-12-14T06:53:26.701440","MEAN_MOTION":15.08840122,"ECCENTRICITY":0.00017057,"INCLINATION":53.2184,"RA_OF_ASC_NODE":352.5167,"ARG_OF_PERICENTER":88.7651,"MEAN_ANOMALY":271.3537,"EPHEMERIS_TYPE":0,"CLASSIFICATION_TYPE":"U","NORAD_CAT_ID":51715,"ELEMENT_SET_NO":999,"REV_AT_EPOCH":21166,"BSTAR":-3.4751568e-5,"MEAN_MOTION_DOT":-8.41e-6,"MEAN_MOTION_DDOT":0},{"OBJECT_NAME":"STARLINK-3543","OBJECT_ID":"2022-016C","EPOCH":"2025-12-14T07:02:40.854624","MEAN_MOTION":15.08836667,"ECCENTRICITY":0.00014515,"INCLINATION":53.2199,"RA_OF_ASC_NODE":352.4785,"ARG_OF_PERICENTER":87.4192,"MEAN_ANOMALY":272.6966,"EPHEMERIS_TYPE":0,"CLASSIFICATION_TYPE":"U","NORAD_CAT_ID":51716,"ELEMENT_SET_NO":999,"REV_AT_EPOCH":21053,"BSTAR":2.994056e-5,"MEAN_MOTION_DOT":1.89e-6,"MEAN_MOTION_DDOT":0},{"OBJECT_NAME":"STARLINK-3445","OBJECT_ID":"2022-016D","EPOCH":"2025-12-14T07:09:21.831840","MEAN_MOTION":15.08827979,"ECCENTRICITY":0.00011769,"INCLINATION":53.2195,"RA_OF_ASC_NODE":352.5452,"ARG_OF_PERICENTER":97.3745,"MEAN_ANOMALY":262.7381,"EPHEMERIS_TYPE":0,"CLASSIFICATION_TYPE":"U","NORAD_CAT_ID":51717,"ELEMENT_SET_NO":999,"REV_AT_EPOCH":21053,"BSTAR":-2.1117082e-5,"MEAN_MOTION_DOT":-6.24e-6,"MEAN_MOTION_DDOT":0},{"OBJECT_NAME":"STARLINK-3546","OBJECT_ID":"2022-016E","EPOCH":"2025-12-14T07:32:57.830208","MEAN_MOTION":15.10822369,"ECCENTRICITY":0.00041336,"INCLINATION":53.2171,"RA_OF_ASC_NODE":352.1032,"ARG_OF_PERICENTER":46.7619,"MEAN_ANOMALY":313.3719,"EPHEMERIS_TYPE":0,"CLASSIFICATION_TYPE":"U","NORAD_CAT_ID":51718,"ELEMENT_SET_NO":999,"REV_AT_EPOCH":21166,"BSTAR":0.0016268746,"MEAN_MOTION_DOT":0.00027158,"MEAN_MOTION_DDOT":0},{"OBJECT_NAME":"STARLINK-3540","OBJECT_ID":"2022-016F","EPOCH":"2025-12-14T06:57:22.866336","MEAN_MOTION":15.08836533,"ECCENTRICITY":0.00015581,"INCLINATION":53.2187,"RA_OF_ASC_NODE":352.5721,"ARG_OF_PERICENTER":93.3066,"MEAN_ANOMALY":266.8104,"EPHEMERIS_TYPE":0,"CLASSIFICATION_TYPE":"U","NORAD_CAT_ID":51719,"ELEMENT_SET_NO":999,"REV_AT_EPOCH":21053,"BSTAR":4.911703e-5,"MEAN_MOTION_DOT":4.94e-6,"MEAN_MOTION_DDOT":0}]
